{
  "type": "FeatureCollection",
  "features": [
    {
      "type": "Feature",
      "properties": {
        "level": "極めて高い (浸水想定 5m〜10m以上)",
        "type": "神奈川県津波浸水想定 (最大クラス)",
        "area": "由比ヶ浜・材木座・滑川遡上エリア"
      },
      "geometry": {
        "type": "Polygon",
        "coordinates": [
          [
            [139.530, 35.307],
            [139.531, 35.312],
            [139.537, 35.311],
            [139.543, 35.313],
            [139.548, 35.319],
            [139.553, 35.319],
            [139.556, 35.314],
            [139.562, 35.312],
            [139.565, 35.303],
            [139.552, 35.304],
            [139.541, 35.306],
            [139.530, 35.307]
          ]
        ]
      }
    },
    {
      "type": "Feature",
      "properties": {
        "level": "高い (浸水想定 2m〜5m)",
        "type": "神奈川県津波浸水想定 (最大クラス)",
        "area": "七里ヶ浜エリア"
      },
      "geometry": {
        "type": "Polygon",
        "coordinates": [
          [
            [139.504, 35.304],
            [139.506, 35.308],
            [139.510, 35.309],
            [139.514, 35.307],
            [139.519, 35.306],
            [139.517, 35.303],
            [139.507, 35.304],
            [139.504, 35.304]
          ]
        ]
      }
    }
  ]
}
